[{"OBJECT_NAME":"STARLINK-34437","OBJECT_ID":"2025-126C","EPOCH":"2026-03-09T23:34:18.023520","MEAN_MOTION":14.98330455,"ECCENTRICITY":0.00030023,"INCLINATION":70.0035,"RA_OF_ASC_NODE":33.8073,"ARG_OF_PERICENTER":264.1696,"MEAN_ANOMALY":95.9121,"EPHEMERIS_TYPE":0,"CLASSIFICATION_TYPE":"U","NORAD_CAT_ID":64346,"ELEMENT_SET_NO":999,"REV_AT_EPOCH":4072,"BSTAR":-0.00016943203,"MEAN_MOTION_DOT":-2.114e-5,"MEAN_MOTION_DDOT":0},{"OBJECT_NAME":"COSMOS 2242","OBJECT_ID":"1993-024A","EPOCH":"2026-03-09T23:17:07.942848","MEAN_MOTION":14.96550444,"ECCENTRICITY":0.00151707,"INCLINATION":82.5157,"RA_OF_ASC_NODE":266.4481,"ARG_OF_PERICENTER":307.8411,"MEAN_ANOMALY":52.1437,"EPHEMERIS_TYPE":0,"CLASSIFICATION_TYPE":"U","NORAD_CAT_ID":22626,"ELEMENT_SET_NO":999,"REV_AT_EPOCH":78043,"BSTAR":0.00021609887,"MEAN_MOTION_DOT":2.488e-5,"MEAN_MOTION_DDOT":0}]
